GALAXY 25 (G-25)        
1 24812U 97026A   22226.83901970 -.00000021  00000+0  00000+0 0  9994
2 24812   3.8317  83.0870 0003873  31.8310 216.4691  1.00270965 92318
INTELSAT 5 (IS-5)       
1 24916U 97046A   22229.51707049 -.00000074  00000+0  00000+0 0  9998
2 24916   7.3540  60.6316 0003593 113.8299 143.7084  1.00272493 91586
GALAXY 11 (G-11)        
1 26038U 99071A   22228.46811299 -.00000176  00000+0  00000+0 0  9994
2 26038   3.1533  86.9903 0000340 185.0936 128.1533  1.00272161 83037
INTELSAT 9 (IS-9)       
1 26451U 00043A   22229.36940104 -.00000300  00000+0  00000+0 0  9991
2 26451   7.3403  60.8152 0002369  99.5111 248.3881  1.00272223 80804
INTELSAT 1R (IS-1R)     
1 26608U 00072A   22228.64529557 -.00000152  00000+0  00000+0 0  9997
2 26608   4.6121  80.0889 0000635 298.6157 335.7009  1.00272012 27273
INTELSAT 10 (IS-10)     
1 26766U 01019A   22229.37264309  .00000022  00000+0  00000+0 0  9991
2 26766   5.7192  72.8573 0002449  63.8968 140.9063  1.00272693 77898
INTELSAT 901 (IS-901)   
1 26824U 01024A   22225.75660277 -.00000221  00000+0  00000+0 0  9996
2 26824   0.0186 231.9409 0001295 300.9050  34.1880  1.00267297  8906
INTELSAT 902 (IS-902)   
1 26900U 01039A   22229.37025775 -.00000293  00000+0  00000+0 0  9996
2 26900   2.5540  88.3575 0002543  56.2902 264.2884  1.00272831 76730
INTELSAT 904 (IS-904)   
1 27380U 02007A   22225.75616677 -.00000233  00000+0  00000+0 0  9994
2 27380   3.3776  85.3536 0003044  60.8362  58.6729  1.00270385 37692
DIRECTV 5 (TEMPO 1)     
1 27426U 02023A   22229.19943638 -.00000067  00000+0  00000+0 0  9990
2 27426   1.2791  92.5486 0003233  54.3037 140.3659  1.00271639 74266
INTELSAT 905 (IS-905)   
1 27438U 02027A   22225.75721317 -.00000204  00000+0  00000+0 0  9996
2 27438   3.1994  86.0919 0002802  65.9314  58.2185  1.00269931 37296
GALAXY 3C (G-3C)        
1 27445U 02030A   22229.11430307 -.00000163  00000+0  00000+0 0  9992
2 27445   0.1259  82.8368 0000259 250.1171 298.8020  1.00271560 73910
INTELSAT 906 (IS-906)   
1 27513U 02041A   22228.63078432  .00000001  00000+0  00000+0 0  9993
2 27513   2.2209  89.8377 0003173  61.5167 104.8837  1.00273726 72982
GALAXY 12 (G-12)        
1 27715U 03013B   22228.59054764  .00000045  00000+0  00000+0 0  9992
2 27715   3.4176  84.9609 0001970  77.5614 246.0226  1.00273152 38046
GALAXY 23 (G-23)        
1 27854U 03034A   22228.72228359  .00000001  00000+0  00000+0 0  9999
2 27854   0.0375 253.3723 0002934 258.2555 312.4887  1.00272067 69708
GALAXY 13 (HORIZONS-1)  
1 27954U 03044A   22229.44302545  .00000036  00000+0  00000+0 0  9999
2 27954   0.0194 100.0494 0000764 352.9449 265.2794  1.00290082 69129
INTELSAT 10-02          
1 28358U 04022A   22228.20179781 -.00000021  00000+0  00000+0 0  9997
2 28358   0.0402 272.2898 0001569 269.3130 214.6241  1.00287308 66491
XM-3 (RHYTHM)           
1 28626U 05008A   22229.21403964 -.00000216  00000+0  00000+0 0  9991
2 28626   0.0213 211.6955 0001591 324.4578 141.3551  1.00270739 64021
DIRECTV 8               
1 28659U 05019A   22228.72390626 -.00000011  00000+0  00000+0 0  9997
2 28659   0.0135 148.7433 0002640   3.6633 314.2276  1.00272848 63145
GALAXY 28 (G-28)        
1 28702U 05022A   22229.21243427 -.00000196  00000+0  00000+0 0  9995
2 28702   0.0196  62.0915 0002750  76.1205 174.8311  1.00275028 62788
GALAXY 14 (G-14)        
1 28790U 05030A   22228.75194931  .00000143  00000+0  00000+0 0  9995
2 28790   1.4116  91.6490 0001822  53.9465 123.0844  1.00272131 62260
GALAXY 15 (G-15)        
1 28884U 05041A   22229.18583196  .00000068  00000+0  00000+0 0  9990
2 28884   0.0387 280.7663 0001706 231.0125 107.6782  1.00274075 61565
SPACEWAY 2              
1 28903U 05046B   22229.55532104  .00000093  00000+0  00000+0 0  9999
2 28903   2.0426  87.3375 0000417  92.8542 206.7189  1.00275825 61463
GALAXY 16 (G-16)        
1 29236U 06023A   22229.20599306 -.00000137  00000+0  00000+0 0  9994
2 29236   0.0569 274.3428 0003021 243.9292 142.4166  1.00270430 59220
DIRECTV 9S              
1 29494U 06043A   22229.38920193 -.00000123  00000+0  00000+0 0  9998
2 29494   0.0199 113.8533 0003002  37.2312 213.5523  1.00272175 58072
XM-4 (BLUES)            
1 29520U 06049A   22229.29522347 -.00000216  00000+0  00000+0 0  9996
2 29520   0.0639 293.0314 0001496  28.3438  25.4212  1.00271891 57959
GALAXY 17 (G-17)        
1 31307U 07016B   22228.63567587 -.00000186  00000+0  00000+0 0  9995
2 31307   0.0069 292.3627 0002649 226.0474 304.4140  1.00271226 55768
DIRECTV 10              
1 31862U 07032A   22228.62124762 -.00000114  00000+0  00000+0 0  9993
2 31862   0.0076 224.8413 0000389 201.1311  19.8465  1.00269656 31549
SPACEWAY 3              
1 32018U 07036A   22228.46721441 -.00000164  00000+0  00000+0 0  9995
2 32018   0.3754  90.0913 0000259  63.6798 244.2936  1.00271734 32507
INTELSAT 11 (IS-11)     
1 32253U 07044B   22229.39382076 -.00000279  00000+0  00000+0 0  9992
2 32253   0.0490  56.4824 0000588  88.0152 280.0021  1.00270585 54497
HORIZONS-2              
1 32388U 07063B   22225.76349160 -.00000065  00000+0  00000+0 0  9999
2 32388   0.0164  95.5125 0004033   4.8377 144.1913  0.99710651 53743
DIRECTV 11              
1 32729U 08013A   22229.33848823 -.00000136  00000+0  00000+0 0  9990
2 32729   0.0056 214.1361 0000235 347.5958 146.6065  1.00272012 52904
GALAXY 18 (G-18)        
1 32951U 08024A   22228.59611277  .00000013  00000+0  00000+0 0  9990
2 32951   0.0166 106.2971 0003015  44.1048 266.1380  1.00273075 52043
INTELSAT 25 (IS-25)     
1 33153U 08034A   22229.06682083 -.00000235  00000+0  00000+0 0  9999
2 33153   0.0223 120.6698 0003253  36.3642 160.8980  1.00269835 51599
GALAXY 19 (G-19)        
1 33376U 08045A   22228.80634329 -.00000150  00000+0  00000+0 0  9995
2 33376   0.0591 277.7965 0002919 232.3860   8.2601  1.00271136 50864
FM-5                    
1 35493U 09034A   22229.34641111 -.00000210  00000+0  00000+0 0  9990
2 35493   0.0161  97.6173 0000355 234.4251  32.1989  1.00270685 47946
INTELSAT 14 (IS-14)     
1 36097U 09064A   22229.11020259 -.00000284  00000+0  00000+0 0  9994
2 36097   0.0214 100.9054 0002580  56.4122 162.8251  1.00272298 46655
INTELSAT 15 (IS-15)     
1 36106U 09067A   22226.76802403 -.00000202  00000+0  00000+0 0  9995
2 36106   0.0187  67.5475 0002542  85.3465 171.8871  1.00272035 27161
DIRECTV 12              
1 36131U 09075A   22229.20354646 -.00000114  00000+0  00000+0 0  9997
2 36131   0.0423 264.4803 0000289 319.6215  72.0079  1.00271755 46348
INTELSAT 16 (IS-16)     
1 36397U 10006A   22228.47831260 -.00000257  00000+0  00000+0 0  9995
2 36397   0.0185  82.7395 0002241  66.5160 271.5657  1.00271918 45608
XM-5                    
1 37185U 10053A   22229.38114007 -.00000033  00000+0  00000+0 0  9999
2 37185   0.0222 109.0675 0000544 218.7890  19.8836  1.00268593 43408
INTELSAT 17 (IS-17)     
1 37238U 10065B   22228.71913234 -.00000014  00000+0  00000+0 0  9995
2 37238   0.0285 196.9950 0002459 309.5314 143.4322  1.00272919 39196
INTELSAT NEW DAWN       
1 37392U 11016A   22226.99247046  .00000139  00000+0  00000+0 0  9999
2 37392   0.0173 134.5313 0001810 338.3838 240.5317  1.00262184 39225
INTELSAT 18 (IS-18)     
1 37834U 11056A   22229.53480833  .00000043  00000+0  00000+0 0  9994
2 37834   0.0263   6.9601 0002241 147.1295 184.3064  1.00271974 39805
INTELSAT 22 (IS-22)     
1 38098U 12011A   22226.84129476 -.00000075  00000+0  00000+0 0  9999
2 38098   0.0130  91.4775 0002794  66.6398 180.0702  1.00271816 37999
INTELSAT 19 (IS-19)     
1 38356U 12030A   22229.24195073 -.00000067  00000+0  00000+0 0  9991
2 38356   0.0100 131.7625 0003212  19.0685  67.8595  1.00271523 37472
INTELSAT 20 (IS-20)     
1 38740U 12043A   22226.88732699 -.00000044  00000+0  00000+0 0  9995
2 38740   0.0126 140.8785 0001970  24.5854 185.7378  1.00283917 36684
INTELSAT 21 (IS-21)     
1 38749U 12045A   22228.45874442 -.00000297  00000+0  00000+0 0  9994
2 38749   0.0096 296.5413 0002253 220.9579 274.4635  1.00271054 36486
INTELSAT 23 (IS-23)     
1 38867U 12057A   22229.35677434 -.00000295  00000+0  00000+0 0  9998
2 38867   0.0086 148.2869 0000874   7.8486 245.0115  1.00259516 36071
FM-6                    
1 39360U 13058A   22229.26183949 -.00000027  00000+0  00000+0 0  9995
2 39360   0.0521 269.1094 0000499 120.8300 273.7679  1.00270315 32306
INTELSAT 30 (IS-30)     
1 40271U 14062A   22228.40200755 -.00000163  00000+0  00000+0 0  9995
2 40271   0.0089 130.9372 0001959 310.7946 292.6983  1.00270652 28532
DIRECTV 14              
1 40333U 14078B   22228.62459903 -.00000138  00000+0  00000+0 0  9998
2 40333   0.0189 100.1851 0000762 114.0787 236.3534  1.00272284 28206
DIRECTV 15              
1 40663U 15026A   22229.20354569 -.00000113  00000+0  00000+0 0  9998
2 40663   0.0121  99.7214 0000384 297.2003 259.0319  1.00269336 26495
SKY MEXICO-1            
1 40664U 15026B   22229.33401292 -.00000245  00000+0  00000+0 0  9995
2 40664   0.0032  52.1773 0001978 106.9978 207.9826  1.00273614 26496
INTELSAT 34 (IS-34)     
1 40874U 15039A   22229.23145194 -.00000296  00000+0  00000+0 0  9993
2 40874   0.0297 318.7548 0000587  80.0927 314.5743  1.00270970 25588
INTELSAT 31 (IS-31)     
1 41581U 16035A   22229.34088395 -.00000161  00000+0  00000+0 0  9998
2 41581   0.0330 246.7945 0001189 348.8246 117.7275  1.00271179 22651
INTELSAT 36 (IS-36)     
1 41747U 16053A   22225.70393373 -.00000043  00000+0  00000+0 0  9992
2 41747   0.0149  65.9314 0002339 297.1904 280.8801  1.00268731 21879
INTELSAT 33E (IS-33E)   
1 41748U 16053B   22225.70227692  .00000030  00000+0  00000+0 0  9998
2 41748   0.0154  71.9678 0001735  71.8674 131.0593  1.00271445 22171
INTELSAT 32E (IS-32E)   
1 41945U 17007B   22227.39300220 -.00000284  00000+0  00000+0 0  9995
2 41945   0.0203  99.2781 0001034 325.1615 357.6322  1.00270100 20176
INTELSAT 35E (IS-35E)   
1 42818U 17041A   22229.45621833 -.00000248  00000+0  00000+0 0  9998
2 42818   0.0139 112.3626 0001760  43.4297 299.7227  1.00270769 18775
INTELSAT 37E (IS-37E)   
1 42950U 17059A   22225.75843399 -.00000159  00000+0  00000+0 0  9997
2 42950   0.0145  96.0833 0002684  47.1486  73.9591  1.00271600 17998
AZERSPACE 2 (IS-38)     
1 43632U 18074A   22228.64484807  .00000124  00000+0  00000+0 0  9990
2 43632   0.0132 107.2853 0001541  51.1294  83.8172  1.00272221 14400
HORIZONS-3E             
1 43633U 18074B   22228.57727222 -.00000043  00000+0  00000+0 0  9995
2 43633   0.0156 237.0810 0002113  63.2828  41.3694  1.00269254 14270
AT&T T-16               
1 44333U 19034A   22229.20518421 -.00000126  00000+0  00000+0 0  9992
2 44333   0.0088 161.4776 0000539 232.8905 264.1869  1.00270273 11586
INTELSAT 39 (IS-39)     
1 44476U 19049B   22226.99042832  .00000019  00000+0  00000+0 0  9997
2 44476   0.0178 117.6143 0001292 198.3034  65.9354  1.00261066 11082
GALAXY 30 (G-30)        
1 46114U 20056C   22229.19064948  .00000026  00000+0  00000+0 0  9993
2 46114   0.0168 107.5442 0001899  43.0155 118.6030  1.00272628  7364
